[
    {
        "Altitude(m)": 607897.6349586593,
        "Argument of Periapsis(deg)": 0.0,
        "Eccentricity": 0.0,
        "Inclination(deg)": 60.0,
        "Latitude(deg)": -14.293049108321165,
        "Longitude(deg)": -28.381220485055515,
        "Mean Anomaly(deg)": -16.363600000000023,
        "RAAN(deg)": 80.0,
        "Satellite Name": "Test1 373",
        "Satellite Number": 373,
        "Semi-Major Axis(m)": 6980739.136638005,
        "Time(s)": 0
    },
    {
        "Altitude(m)": 607750.8354618293,
        "Argument of Periapsis(deg)": 0.00010418945913296404,
        "Eccentricity": 0.0,
        "Inclination(deg)": 60.0,
        "Latitude(deg)": -13.758890027746222,
        "Longitude(deg)": -28.094152368478404,
        "Mean Anomaly(deg)": -15.743493854538185,
        "RAAN(deg)": 79.99957995086025,
        "Satellite Name": "Test1 373",
        "Satellite Number": 373,
        "Semi-Major Axis(m)": 6980739.136638005,
        "Time(s)": 10
    },
    {
        "Altitude(m)": 607606.5602477546,
        "Argument of Periapsis(deg)": 0.0002083789182659281,
        "Eccentricity": 0.0,
        "Inclination(deg)": 60.0,
        "Latitude(deg)": -13.224256199487424,
        "Longitude(deg)": -27.808560660723238,
        "Mean Anomaly(deg)": -15.123387709076395,
        "RAAN(deg)": 79.99915990172052,
        "Satellite Name": "Test1 373",
        "Satellite Number": 373,
        "Semi-Major Axis(m)": 6980739.136638005,
        "Time(s)": 20
    },
    {
        "Altitude(m)": 607464.8536889238,
        "Argument of Periapsis(deg)": 0.00031256837739889213,
        "Eccentricity": 0.0,
        "Inclination(deg)": 60.0,
        "Latitude(deg)": -12.689167928000767,
        "Longitude(deg)": -27.52438068234804,
        "Mean Anomaly(deg)": -14.503281563614554,
        "RAAN(deg)": 79.99873985258077,
        "Satellite Name": "Test1 373",
        "Satellite Number": 373,
        "Semi-Major Axis(m)": 6980739.136638005,
        "Time(s)": 30
    },
    {
        "Altitude(m)": 607325.7588807186,
        "Argument of Periapsis(deg)": 0.0004167578365318562,
        "Eccentricity": 0.0,
        "Inclination(deg)": 60.0,
        "Latitude(deg)": -12.153645245194383,
        "Longitude(deg)": -27.241548096572483,
        "Mean Anomaly(deg)": -13.883175418152714,
        "RAAN(deg)": 79.99831980344103,
        "Satellite Name": "Test1 373",
        "Satellite Number": 373,
        "Semi-Major Axis(m)": 6980739.136638005,
        "Time(s)": 40
    },
    {
        "Altitude(m)": 607189.3176231341,
        "Argument of Periapsis(deg)": 0.0005209472956648203,
        "Eccentricity": 0.0,
        "Inclination(deg)": 60.0,
        "Latitude(deg)": -11.617707924371311,
        "Longitude(deg)": -26.95999987774395,
        "Mean Anomaly(deg)": -13.263069272690874,
        "RAAN(deg)": 79.99789975430129,
        "Satellite Name": "Test1 373",
        "Satellite Number": 373,
        "Semi-Major Axis(m)": 6980739.136638005,
        "Time(s)": 50
    },
    {
        "Altitude(m)": 607055.5704030638,
        "Argument of Periapsis(deg)": 0.0006251367547977843,
        "Eccentricity": 0.0,
        "Inclination(deg)": 60.0,
        "Latitude(deg)": -11.081375493814873,
        "Longitude(deg)": -26.67967376760681,
        "Mean Anomaly(deg)": -12.642963127229084,
        "RAAN(deg)": 79.99747970516155,
        "Satellite Name": "Test1 373",
        "Satellite Number": 373,
        "Semi-Major Axis(m)": 6980739.136638005,
        "Time(s)": 60
    },
    {
        "Altitude(m)": 606924.5563772456,
        "Argument of Periapsis(deg)": 0.0007293262139307483,
        "Eccentricity": 0.0,
        "Inclination(deg)": 60.0,
        "Latitude(deg)": -10.544667250037186,
        "Longitude(deg)": -26.400507732218585,
        "Mean Anomaly(deg)": -12.022856981767191,
        "RAAN(deg)": 79.9970596560218,
        "Satellite Name": "Test1 373",
        "Satellite Number": 373,
        "Semi-Major Axis(m)": 6980739.136638005,
        "Time(s)": 70
    },
    {
        "Altitude(m)": 606796.3133558815,
        "Argument of Periapsis(deg)": 0.0008335156730637124,
        "Eccentricity": 0.0,
        "Inclination(deg)": 60.0,
        "Latitude(deg)": -10.007602270712647,
        "Longitude(deg)": -26.12244093235894,
        "Mean Anomaly(deg)": -11.402750836305405,
        "RAAN(deg)": 79.99663960688207,
        "Satellite Name": "Test1 373",
        "Satellite Number": 373,
        "Semi-Major Axis(m)": 6980739.136638005,
        "Time(s)": 80
    },
    {
        "Altitude(m)": 606670.8777868401,
        "Argument of Periapsis(deg)": 0.0009377051321966765,
        "Eccentricity": 0.0,
        "Inclination(deg)": 60.0,
        "Latitude(deg)": -9.470199427307746,
        "Longitude(deg)": -25.845413181654358,
        "Mean Anomaly(deg)": -10.782644690843563,
        "RAAN(deg)": 79.99621955774232,
        "Satellite Name": "Test1 373",
        "Satellite Number": 373,
        "Semi-Major Axis(m)": 6980739.136638005,
        "Time(s)": 90
    },
    {
        "Altitude(m)": 606548.2847406169,
        "Argument of Periapsis(deg)": 0.0010418945913296407,
        "Eccentricity": 0.0,
        "Inclination(deg)": 60.0,
        "Latitude(deg)": -8.932477397429233,
        "Longitude(deg)": -25.56936440526324,
        "Mean Anomaly(deg)": -10.16253854538171,
        "RAAN(deg)": 79.99579950860256,
        "Satellite Name": "Test1 373",
        "Satellite Number": 373,
        "Semi-Major Axis(m)": 6980739.136638005,
        "Time(s)": 100
    },
    {
        "Altitude(m)": 606428.5678958872,
        "Argument of Periapsis(deg)": 0.0011460840504626045,
        "Eccentricity": 0.0,
        "Inclination(deg)": 60.0,
        "Latitude(deg)": -8.39445467690834,
        "Longitude(deg)": -25.294235611966133,
        "Mean Anomaly(deg)": -9.54243239991992,
        "RAAN(deg)": 79.99537945946282,
        "Satellite Name": "Test1 373",
        "Satellite Number": 373,
        "Semi-Major Axis(m)": 6980739.136638005,
        "Time(s)": 110
    },
    {
        "Altitude(m)": 606311.7595257814,
        "Argument of Periapsis(deg)": 0.0012502735095955685,
        "Eccentricity": 0.0,
        "Inclination(deg)": 60.0,
        "Latitude(deg)": -7.856149591633592,
        "Longitude(deg)": -25.01996835388371,
        "Mean Anomaly(deg)": -8.92232625445808,
        "RAAN(deg)": 79.99495941032308,
        "Satellite Name": "Test1 373",
        "Satellite Number": 373,
        "Semi-Major Axis(m)": 6980739.136638005,
        "Time(s)": 120
    },
    {
        "Altitude(m)": 606197.8904848386,
        "Argument of Periapsis(deg)": 0.0013544629687285324,
        "Eccentricity": 0.0,
        "Inclination(deg)": 60.0,
        "Latitude(deg)": -7.317580309151227,
        "Longitude(deg)": -24.746504186667817,
        "Mean Anomaly(deg)": -8.30222010899624,
        "RAAN(deg)": 79.99453936118334,
        "Satellite Name": "Test1 373",
        "Satellite Number": 373,
        "Semi-Major Axis(m)": 6980739.136638005,
        "Time(s)": 130
    },
    {
        "Altitude(m)": 606086.990196647,
        "Argument of Periapsis(deg)": 0.0014586524278614966,
        "Eccentricity": 0.0,
        "Inclination(deg)": 60.0,
        "Latitude(deg)": -6.778764850050748,
        "Longitude(deg)": -24.473785643008846,
        "Mean Anomaly(deg)": -7.6821139635344,
        "RAAN(deg)": 79.99411931204361,
        "Satellite Name": "Test1 373",
        "Satellite Number": 373,
        "Semi-Major Axis(m)": 6980739.136638005,
        "Time(s)": 140
    },
    {
        "Altitude(m)": 605979.0866422025,
        "Argument of Periapsis(deg)": 0.0015628418869944607,
        "Eccentricity": 0.0,
        "Inclination(deg)": 60.0,
        "Latitude(deg)": -6.239721099146986,
        "Longitude(deg)": -24.201755693683403,
        "Mean Anomaly(deg)": -7.06200781807261,
        "RAAN(deg)": 79.99369926290386,
        "Satellite Name": "Test1 373",
        "Satellite Number": 373,
        "Semi-Major Axis(m)": 6980739.136638005,
        "Time(s)": 150
    },
    {
        "Altitude(m)": 605874.2063489505,
        "Argument of Periapsis(deg)": 0.0016670313461274247,
        "Eccentricity": 0.0,
        "Inclination(deg)": 60.0,
        "Latitude(deg)": -5.700466816475929,
        "Longitude(deg)": -23.93035720898659,
        "Mean Anomaly(deg)": -6.441901672610719,
        "RAAN(deg)": 79.99327921376411,
        "Satellite Name": "Test1 373",
        "Satellite Number": 373,
        "Semi-Major Axis(m)": 6980739.136638005,
        "Time(s)": 160
    },
    {
        "Altitude(m)": 605772.3743805713,
        "Argument of Periapsis(deg)": 0.0017712208052603888,
        "Eccentricity": 0.0,
        "Inclination(deg)": 60.0,
        "Latitude(deg)": -5.161019648122554,
        "Longitude(deg)": -23.659533933393206,
        "Mean Anomaly(deg)": -5.82179552714893,
        "RAAN(deg)": 79.99285916462436,
        "Satellite Name": "Test1 373",
        "Satellite Number": 373,
        "Semi-Major Axis(m)": 6980739.136638005,
        "Time(s)": 170
    },
    {
        "Altitude(m)": 605673.6143274488,
        "Argument of Periapsis(deg)": 0.001875410264393353,
        "Eccentricity": 0.0,
        "Inclination(deg)": 60.0,
        "Latitude(deg)": -4.621397136888984,
        "Longitude(deg)": -23.389229947671144,
        "Mean Anomaly(deg)": -5.201689381687089,
        "RAAN(deg)": 79.99243911548463,
        "Satellite Name": "Test1 373",
        "Satellite Number": 373,
        "Semi-Major Axis(m)": 6980739.136638005,
        "Time(s)": 180
    },
    {
        "Altitude(m)": 605577.9482979032,
        "Argument of Periapsis(deg)": 0.0019795997235263173,
        "Eccentricity": 0.0,
        "Inclination(deg)": 60.0,
        "Latitude(deg)": -4.0816167328218835,
        "Longitude(deg)": -23.119389131291904,
        "Mean Anomaly(deg)": -4.5815832362253,
        "RAAN(deg)": 79.99201906634488,
        "Satellite Name": "Test1 373",
        "Satellite Number": 373,
        "Semi-Major Axis(m)": 6980739.136638005,
        "Time(s)": 190
    }
]